{
  "type": "FeatureCollection",
  "features": [
    {
      "type": "Feature",
      "properties": {
        "norad_id": 66650,
        "name": "2025-274A",
        "group": "last-30-days",
        "lat": 60.938183294022274,
        "lon": 98.11567406752873,
        "alt_km": 594.2782383068752,
        "timestamp": "2025-12-02T13:52:16.066664+00:00",
        "meta_object_name": "2025-274A",
        "meta_object_id": "2025-274A",
        "meta_epoch": "2025-12-02T00:27:47.322144",
        "meta_mean_motion": 14.91599451,
        "meta_eccentricity": 0.00104776,
        "meta_inclination": 97.7378,
        "meta_ra_of_asc_node": 263.405,
        "meta_arg_of_pericenter": 292.6464,
        "meta_mean_anomaly": 67.3646,
        "meta_ephemeris_type": 0,
        "meta_classification_type": "U",
        "meta_norad_cat_id": 66650,
        "meta_element_set_no": 999,
        "meta_rev_at_epoch": 80,
        "meta_bstar": 0.00026443629,
        "meta_mean_motion_dot": 2.6e-05,
        "meta_mean_motion_ddot": 0,
        "tle_line1": "1 66650U 25274A   25336.01929771  .00002600  00000+0  26444-3 0  9998",
        "tle_line2": "2 66650  97.7378 263.4050 0010477 292.6464  67.3646 14.91599451   806"
      },
      "geometry": {
        "type": "Point",
        "coordinates": [
          98.11567406752873,
          60.938183294022274
        ]
      }
    },
    {
      "type": "Feature",
      "properties": {
        "norad_id": 66651,
        "name": "2025-274B",
        "group": "last-30-days",
        "lat": 59.77977798361751,
        "lon": 97.451684472401,
        "alt_km": 594.3715525863308,
        "timestamp": "2025-12-02T13:52:16.066676+00:00",
        "meta_object_name": "2025-274B",
        "meta_object_id": "2025-274B",
        "meta_epoch": "2025-12-02T05:17:17.286144",
        "meta_mean_motion": 14.91666982,
        "meta_eccentricity": 0.00107801,
        "meta_inclination": 97.7374,
        "meta_ra_of_asc_node": 263.6024,
        "meta_arg_of_pericenter": 291.3987,
        "meta_mean_anomaly": 68.6081,
        "meta_ephemeris_type": 0,
        "meta_classification_type": "U",
        "meta_norad_cat_id": 66651,
        "meta_element_set_no": 999,
        "meta_rev_at_epoch": 83,
        "meta_bstar": 0.00051317074,
        "meta_mean_motion_dot": 5.109e-05,
        "meta_mean_motion_ddot": 0,
        "tle_line1": "1 66651U 25274B   25336.22033896  .00005109  00000+0  51317-3 0  9990",
        "tle_line2": "2 66651  97.7374 263.6024 0010780 291.3987  68.6081 14.91666982   833"
      },
      "geometry": {
        "type": "Point",
        "coordinates": [
          97.451684472401,
          59.77977798361751
        ]
      }
    },
    {
      "type": "Feature",
      "properties": {
        "norad_id": 66652,
        "name": "2025-274C",
        "group": "last-30-days",
        "lat": 56.67585414903841,
        "lon": 95.89017538723907,
        "alt_km": 594.194454814141,
        "timestamp": "2025-12-02T13:52:16.066687+00:00",
        "meta_object_name": "2025-274C",
        "meta_object_id": "2025-274C",
        "meta_epoch": "2025-12-02T02:03:18.597024",
        "meta_mean_motion": 14.91812766,
        "meta_eccentricity": 0.00105668,
        "meta_inclination": 97.7378,
        "meta_ra_of_asc_node": 263.4718,
        "meta_arg_of_pericenter": 298.6241,
        "meta_mean_anomaly": 61.3915,
        "meta_ephemeris_type": 0,
        "meta_classification_type": "U",
        "meta_norad_cat_id": 66652,
        "meta_element_set_no": 999,
        "meta_rev_at_epoch": 81,
        "meta_bstar": 0.0003552139,
        "meta_mean_motion_dot": 3.532e-05,
        "meta_mean_motion_ddot": 0,
        "tle_line1": "1 66652U 25274C   25336.08563191  .00003532  00000+0  35521-3 0  9998",
        "tle_line2": "2 66652  97.7378 263.4718 0010566 298.6241  61.3915 14.91812766   818"
      },
      "geometry": {
        "type": "Point",
        "coordinates": [
          95.89017538723907,
          56.67585414903841
        ]
      }
    },
    {
      "type": "Feature",
      "properties": {
        "norad_id": 66653,
        "name": "2025-274D",
        "group": "last-30-days",
        "lat": 56.506521958722004,
        "lon": 95.8111842418369,
        "alt_km": 594.7415887872585,
        "timestamp": "2025-12-02T13:52:16.066701+00:00",
        "meta_object_name": "2025-274D",
        "meta_object_id": "2025-274D",
        "meta_epoch": "2025-12-02T02:03:15.458976",
        "meta_mean_motion": 14.91817003,
        "meta_eccentricity": 0.00114739,
        "meta_inclination": 97.7373,
        "meta_ra_of_asc_node": 263.4712,
        "meta_arg_of_pericenter": 293.8442,
        "meta_mean_anomaly": 66.1574,
        "meta_ephemeris_type": 0,
        "meta_classification_type": "U",
        "meta_norad_cat_id": 66653,
        "meta_element_set_no": 999,
        "meta_rev_at_epoch": 81,
        "meta_bstar": 0.00016079552,
        "meta_mean_motion_dot": 1.568e-05,
        "meta_mean_motion_ddot": 0,
        "tle_line1": "1 66653U 25274D   25336.08559559  .00001568  00000+0  16080-3 0  9998",
        "tle_line2": "2 66653  97.7373 263.4712 0011473 293.8442  66.1574 14.91817003   819"
      },
      "geometry": {
        "type": "Point",
        "coordinates": [
          95.8111842418369,
          56.506521958722004
        ]
      }
    },
    {
      "type": "Feature",
      "properties": {
        "norad_id": 66654,
        "name": "JACK E",
        "group": "last-30-days",
        "lat": 53.19534054916789,
        "lon": 94.42685406341427,
        "alt_km": 594.9015555540927,
        "timestamp": "2025-12-02T13:52:16.066711+00:00",
        "meta_object_name": "JACK E",
        "meta_object_id": "2025-274E",
        "meta_epoch": "2025-12-02T02:02:25.386720",
        "meta_mean_motion": 14.91983333,
        "meta_eccentricity": 0.00119234,
        "meta_inclination": 97.7378,
        "meta_ra_of_asc_node": 263.4727,
        "meta_arg_of_pericenter": 295.7238,
        "meta_mean_anomaly": 64.275,
        "meta_ephemeris_type": 0,
        "meta_classification_type": "U",
        "meta_norad_cat_id": 66654,
        "meta_element_set_no": 999,
        "meta_rev_at_epoch": 81,
        "meta_bstar": 0.00040486871,
        "meta_mean_motion_dot": 4.052e-05,
        "meta_mean_motion_ddot": 0,
        "tle_line1": "1 66654U 25274E   25336.08501605  .00004052  00000+0  40487-3 0  9997",
        "tle_line2": "2 66654  97.7378 263.4727 0011923 295.7238  64.2750 14.91983333   810"
      },
      "geometry": {
        "type": "Point",
        "coordinates": [
          94.42685406341427,
          53.19534054916789
        ]
      }
    },
    {
      "type": "Feature",
      "properties": {
        "norad_id": 66655,
        "name": "2025-274F",
        "group": "last-30-days",
        "lat": 50.50195155005073,
        "lon": 93.44936563143305,
        "alt_km": 591.8048664772732,
        "timestamp": "2025-12-02T13:52:16.066721+00:00",
        "meta_object_name": "2025-274F",
        "meta_object_id": "2025-274F",
        "meta_epoch": "2025-12-02T05:14:56.714208",
        "meta_mean_motion": 14.92210063,
        "meta_eccentricity": 0.00079562,
        "meta_inclination": 97.7353,
        "meta_ra_of_asc_node": 263.6051,
        "meta_arg_of_pericenter": 324.1553,
        "meta_mean_anomaly": 35.9131,
        "meta_ephemeris_type": 0,
        "meta_classification_type": "U",
        "meta_norad_cat_id": 66655,
        "meta_element_set_no": 999,
        "meta_rev_at_epoch": 83,
        "meta_bstar": 0.00043387382,
        "meta_mean_motion_dot": 4.368e-05,
        "meta_mean_motion_ddot": 0,
        "tle_line1": "1 66655U 25274F   25336.21871197  .00004368  00000+0  43387-3 0  9991",
        "tle_line2": "2 66655  97.7353 263.6051 0007956 324.1553  35.9131 14.92210063   838"
      },
      "geometry": {
        "type": "Point",
        "coordinates": [
          93.44936563143305,
          50.50195155005073
        ]
      }
    },
    {
      "type": "Feature",
      "properties": {
        "norad_id": 66656,
        "name": "2025-274G",
        "group": "last-30-days",
        "lat": 49.50147694161465,
        "lon": 93.11856659435091,
        "alt_km": 595.2408155904568,
        "timestamp": "2025-12-02T13:52:16.066731+00:00",
        "meta_object_name": "2025-274G",
        "meta_object_id": "2025-274G",
        "meta_epoch": "2025-12-01T17:58:40.345248",
        "meta_mean_motion": 14.92160082,
        "meta_eccentricity": 0.00126135,
        "meta_inclination": 97.7374,
        "meta_ra_of_asc_node": 263.1441,
        "meta_arg_of_pericenter": 298.549,
        "meta_mean_anomaly": 61.4459,
        "meta_ephemeris_type": 0,
        "meta_classification_type": "U",
        "meta_norad_cat_id": 66656,
        "meta_element_set_no": 999,
        "meta_rev_at_epoch": 76,
        "meta_bstar": 0.00039914085,
        "meta_mean_motion_dot": 4.012e-05,
        "meta_mean_motion_ddot": 0,
        "tle_line1": "1 66656U 25274G   25335.74907807  .00004012  00000+0  39914-3 0  9994",
        "tle_line2": "2 66656  97.7374 263.1441 0012613 298.5490  61.4459 14.92160082   764"
      },
      "geometry": {
        "type": "Point",
        "coordinates": [
          93.11856659435091,
          49.50147694161465
        ]
      }
    }
  ]
}